ONEWEB-0379             
1 49305U 21090AC  25008.58631601  .00000241  00000+0  61563-3 0  9998
2 49305  87.8986  34.0178 0001743  92.1408 267.9922 13.14504247158643
ONEWEB-0380             
1 49306U 21090AD  25008.60873597  .00000058  00000+0  11358-3 0  9997
2 49306  87.9156  49.2720 0001875  94.8718 265.2629 13.19726302157236
ONEWEB-0381             
1 49307U 21090AE  25008.54254403  .00000084  00000+0  17420-3 0  9995
2 49307  87.9245  18.8196 0001966  87.9918 272.1440 13.20770126160575
ONEWEB-0382             
1 49308U 21090AF  25008.52992345  .00000045  00000+0  78994-4 0  9999
2 49308  87.9244  18.8176 0001790  76.4320 283.7013 13.20772381160566
ONEWEB-0383             
1 49309U 21090AG  25008.57997615  .00000124  00000+0  29997-3 0  9996
2 49309  87.8985  34.0030 0001651  87.5978 272.5340 13.14503581158670
ONEWEB-0384             
1 49310U 21090AH  25008.52676892  .00000103  00000+0  22112-3 0  9993
2 49310  87.9247  18.8329 0001789  73.3720 286.7610 13.20772152160573
ONEWEB-0385             
1 49311U 21090AJ  25008.52202243  .00000095  00000+0  20287-3 0  9990
2 49311  87.9246  18.8346 0001782  85.3154 274.8182 13.20773456160546
ONEWEB-0386             
1 49312U 21090AK  25008.53939745  .00000017  00000+0  11030-4 0  9997
2 49312  87.9239  18.8123 0001738  80.3066 279.8264 13.20772686160562
